
# Worst residual: 52.00 km
# MJD 60863.000000 (2025 Jul  7  0:00)
ZTF101A = A11nsDz = A11oqiO
1 79876U 25000ZZC 25188.49919926  .00000000  00000-0  00000-0 0 27425
2 79876 013.5147 337.3136 7106520 125.4910 186.3406 00.95032491    00

# Worst residual: 66.59 km
# MJD 60864.000000 (2025 Jul  8  0:00)
ZTF101A = A11nsDz = A11oqiO
1 79876U 25000ZZC 25189.49919926  .00000000  00000-0  00000-0 0 27426
2 79876 013.4380 337.7436 7109254 125.7175 168.4050 00.95059767    09

# Worst residual: 116.35 km
# MJD 60865.000000 (2025 Jul  9  0:00)
ZTF101A = A11nsDz = A11oqiO
1 79876U 25000ZZC 25190.49919926  .00000000  00000-0  00000-0 0 27428
2 79876 013.3731 338.0626 7115532 126.0315 150.5072 00.95123825    02

# Worst residual: 136.04 km
# MJD 60866.000000 (2025 Jul 10  0:00)
ZTF101A = A11nsDz = A11oqiO
1 79876U 25000ZZC 25191.49919926  .00000000  00000-0  00000-0 0 27429
2 79876 013.3002 338.4318 7117492 126.2863 132.6141 00.95179412    03

# Worst residual: 164.57 km
# MJD 60867.000000 (2025 Jul 11  0:00)
ZTF101A = A11nsDz = A11oqiO
1 79876U 25000ZZC 25192.49919926  .00000000  00000-0  00000-0 0 27420
2 79876 013.2273 338.7911 7119295 126.5474 114.7076 00.95256895    07

# Worst residual: 160.73 km
# MJD 60868.000000 (2025 Jul 12  0:00)
ZTF101A = A11nsDz = A11oqiO
1 79876U 25000ZZC 25193.49919926  .00000000  00000-0  00000-0 0 27421
2 79876 013.1502 339.1710 7117564 126.7778 096.8092 00.95335421    00

# Worst residual: 139.65 km
# MJD 60869.000000 (2025 Jul 13  0:00)
ZTF101A = A11nsDz = A11oqiO
1 79876U 25000ZZC 25194.49919926  .00000000  00000-0  00000-0 0 27422
2 79876 013.0731 339.5509 7114397 127.0220 078.8583 00.95415287    04

# Worst residual: 124.56 km
# MJD 60870.000000 (2025 Jul 14  0:00)
ZTF101A = A11nsDz = A11oqiO
1 79876U 25000ZZC 25195.49919926  .00000000  00000-0  00000-0 0 27423
2 79876 012.9944 339.9440 7109295 127.2478 060.9096 00.95492545    07

# Worst residual: 111.04 km
# MJD 60871.000000 (2025 Jul 15  0:00)
ZTF101A = A11nsDz = A11oqiO
1 79876U 25000ZZC 25196.49919926  .00000000  00000-0  00000-0 0 27424
2 79876 012.9164 340.3382 7103933 127.4949 042.8935 00.95549750    02

# Worst residual: 97.25 km
# MJD 60872.000000 (2025 Jul 16  0:00)
ZTF101A = A11nsDz = A11oqiO
1 79876U 25000ZZC 25197.49919926  .00000000  00000-0  00000-0 0 27425
2 79876 012.8451 340.7241 7099068 127.7492 024.8704 00.95589470    04

# Worst residual: 128.92 km
# MJD 60873.000000 (2025 Jul 17  0:00)
ZTF101A = A11nsDz = A11oqiO
1 79876U 25000ZZC 25198.49919926  .00000000  00000-0  00000-0 0 27426
2 79876 012.7622 341.1673 7095320 127.9645 006.8038 00.95562228    08

# Worst residual: 155.26 km
# MJD 60874.000000 (2025 Jul 18  0:00)
ZTF101A = A11nsDz = A11oqiO
1 79876U 25000ZZC 25199.49919926  .00000000  00000-0  00000-0 0 27427
2 79876 012.6793 341.6007 7090628 128.1735 348.7750 00.95513445    07

# Worst residual: 166.93 km
# MJD 60875.000000 (2025 Jul 19  0:00)
ZTF101A = A11nsDz = A11oqiO
1 79876U 25000ZZC 25200.49919926  .00000000  00000-0  00000-0 0 27420
2 79876 012.5934 342.0188 7086199 128.3935 330.7595 00.95452859    09

# Worst residual: 159.60 km
# MJD 60876.000000 (2025 Jul 20  0:00)
ZTF101A = A11nsDz = A11oqiO
1 79876U 25000ZZC 25201.49919926  .00000000  00000-0  00000-0 0 27421
2 79876 012.5322 342.3662 7081304 128.6706 312.7722 00.95370671    05

# Worst residual: 162.14 km
# MJD 60877.000000 (2025 Jul 21  0:00)
ZTF101A = A11nsDz = A11oqiO
1 79876U 25000ZZC 25202.49919926  .00000000  00000-0  00000-0 0 27422
2 79876 012.4698 342.6994 7075741 128.9668 294.8013 00.95283034    08

# Worst residual: 175.84 km
# MJD 60878.000000 (2025 Jul 22  0:00)
ZTF101A = A11nsDz = A11oqiO
1 79876U 25000ZZC 25203.49919926  .00000000  00000-0  00000-0 0 27423
2 79876 012.3883 343.1125 7066446 129.1597 276.9199 00.95203665    09

# Worst residual: 157.66 km
# MJD 60879.000000 (2025 Jul 23  0:00)
ZTF101A = A11nsDz = A11oqiO
1 79876U 25000ZZC 25204.49919926  .00000000  00000-0  00000-0 0 27424
2 79876 012.3224 343.4997 7055687 129.4081 258.9751 00.95145504    05

# Worst residual: 102.36 km
# MJD 60880.000000 (2025 Jul 24  0:00)
ZTF101A = A11nsDz = A11oqiO
1 79876U 25000ZZC 25205.49919926  .00000000  00000-0  00000-0 0 27425
2 79876 012.2533 343.8557 7043512 129.6749 241.0786 00.95095634    09

# Worst residual: 41.76 km
# MJD 60881.000000 (2025 Jul 25  0:00)
ZTF101A = A11nsDz = A11oqiO
1 79876U 25000ZZC 25206.49919926  .00000000  00000-0  00000-0 0 27426
2 79876 012.1841 344.2098 7029055 129.9668 223.1550 00.95042678    04

# Worst residual: 45.97 km
# MJD 60882.000000 (2025 Jul 26  0:00)
ZTF101A = A11nsDz = A11oqiO
1 79876U 25000ZZC 25207.49919926  .00000000  00000-0  00000-0 0 27427
2 79876 012.1098 344.5901 7019092 130.2526 205.2124 00.95023691    04

# Worst residual: 50.68 km
# MJD 60883.000000 (2025 Jul 27  0:00)
ZTF101A = A11nsDz = A11oqiO
1 79876U 25000ZZC 25208.49919926  .00000000  00000-0  00000-0 0 27428
2 79876 012.0356 344.9645 7010465 130.5425 187.2866 00.95034277    09

# Worst residual: 71.76 km
# MJD 60884.000000 (2025 Jul 28  0:00)
ZTF101A = A11nsDz = A11oqiO
1 79876U 25000ZZC 25209.49919926  .00000000  00000-0  00000-0 0 27429
2 79876 011.9604 345.3426 7004515 130.8313 169.3500 00.95079724    05

# Worst residual: 142.90 km
# MJD 60885.000000 (2025 Jul 29  0:00)
ZTF101A = A11nsDz = A11oqiO
1 79876U 25000ZZC 25210.49919926  .00000000  00000-0  00000-0 0 27421
2 79876 011.8913 345.6776 7001550 131.1327 151.4675 00.95152673    03

# Worst residual: 169.52 km
# MJD 60886.000000 (2025 Jul 30  0:00)
ZTF101A = A11nsDz = A11oqiO
1 79876U 25000ZZC 25211.49919926  .00000000  00000-0  00000-0 0 27422
2 79876 011.8149 346.0672 6993533 131.3640 133.5935 00.95218638    08

# Worst residual: 154.93 km
# MJD 60887.000000 (2025 Jul 31  0:00)
ZTF101A = A11nsDz = A11oqiO
1 79876U 25000ZZC 25212.49919926  .00000000  00000-0  00000-0 0 27423
2 79876 011.7495 346.3455 6985841 131.7152 115.6961 00.95290893    01

# Worst residual: 163.29 km
# MJD 60888.000000 (2025 Aug  1  0:00)
ZTF101A = A11nsDz = A11oqiO
1 79876U 25000ZZC 25213.49919926  .00000000  00000-0  00000-0 0 27424
2 79876 011.6767 346.6843 6973763 131.9979 097.8090 00.95362407    00

# Worst residual: 165.41 km
# MJD 60889.000000 (2025 Aug  2  0:00)
ZTF101A = A11nsDz = A11oqiO
1 79876U 25000ZZC 25214.49919926  .00000000  00000-0  00000-0 0 27425
2 79876 011.6044 347.0247 6962449 132.2839 079.8684 00.95446033    06

# Worst residual: 153.83 km
# MJD 60890.000000 (2025 Aug  3  0:00)
ZTF101A = A11nsDz = A11oqiO
1 79876U 25000ZZC 25215.49919926  .00000000  00000-0  00000-0 0 27426
2 79876 011.5269 347.4575 6948776 132.4855 061.9184 00.95517600    05

# Worst residual: 127.18 km
# MJD 60891.000000 (2025 Aug  4  0:00)
ZTF101A = A11nsDz = A11oqiO
1 79876U 25000ZZC 25216.49919926  .00000000  00000-0  00000-0 0 27427
2 79876 011.4562 347.7454 6934492 132.8456 043.9004 00.95564516    09
